{
  "type": "FeatureCollection",
  "features": [
    {
      "type": "Feature",
      "properties": {
        "norad_id": 35724,
        "name": "COSMOS 2251 DEB",
        "group": "cosmos-2251-debris",
        "lat": -10.115112191656209,
        "lon": -62.23560446959464,
        "alt_km": 713.1187818188,
        "timestamp": "2025-12-13T18:50:04.827045+00:00",
        "meta_object_name": "COSMOS 2251 DEB",
        "meta_object_id": "1993-036AQV",
        "meta_epoch": "2025-12-11T07:36:26.462016",
        "meta_mean_motion": 14.58193223,
        "meta_eccentricity": 0.00589289,
        "meta_inclination": 74.0322,
        "meta_ra_of_asc_node": 305.3872,
        "meta_arg_of_pericenter": 99.5025,
        "meta_mean_anomaly": 261.2806,
        "meta_ephemeris_type": 0,
        "meta_classification_type": "U",
        "meta_norad_cat_id": 35724,
        "meta_element_set_no": 999,
        "meta_rev_at_epoch": 87508,
        "meta_bstar": 0.00043935858,
        "meta_mean_motion_dot": 2.046e-05,
        "meta_mean_motion_ddot": 0,
        "tle_line1": "1 35724U 93036AQV 25345.31697294  .00002046  00000+0  43936-3 0  9991",
        "tle_line2": "2 35724  74.0322 305.3872 0058928  99.5025 261.2806 14.58193223875082"
      },
      "geometry": {
        "type": "Point",
        "coordinates": [
          -62.23560446959464,
          -10.115112191656209
        ]
      }
    },
    {
      "type": "Feature",
      "properties": {
        "norad_id": 35759,
        "name": "COSMOS 2251 DEB",
        "group": "cosmos-2251-debris",
        "lat": -49.352239652371765,
        "lon": 53.512167531398596,
        "alt_km": 692.8399819884935,
        "timestamp": "2025-12-13T18:50:04.827056+00:00",
        "meta_object_name": "COSMOS 2251 DEB",
        "meta_object_id": "1993-036ARD",
        "meta_epoch": "2025-12-12T22:06:17.325504",
        "meta_mean_motion": 14.64892065,
        "meta_eccentricity": 0.00770642,
        "meta_inclination": 74.0372,
        "meta_ra_of_asc_node": 215.6979,
        "meta_arg_of_pericenter": 333.7707,
        "meta_mean_anomaly": 25.9566,
        "meta_ephemeris_type": 0,
        "meta_classification_type": "U",
        "meta_norad_cat_id": 35759,
        "meta_element_set_no": 999,
        "meta_rev_at_epoch": 66138,
        "meta_bstar": 0.00045171828,
        "meta_mean_motion_dot": 2.49e-05,
        "meta_mean_motion_ddot": 0,
        "tle_line1": "1 35759U 93036ARD 25346.92103386  .00002490  00000+0  45172-3 0  9998",
        "tle_line2": "2 35759  74.0372 215.6979 0077064 333.7707  25.9566 14.64892065661389"
      },
      "geometry": {
        "type": "Point",
        "coordinates": [
          53.512167531398596,
          -49.352239652371765
        ]
      }
    },
    {
      "type": "Feature",
      "properties": {
        "norad_id": 35771,
        "name": "COSMOS 2251 DEB",
        "group": "cosmos-2251-debris",
        "lat": 46.610398838997064,
        "lon": -34.020047020395,
        "alt_km": 1002.8261778396281,
        "timestamp": "2025-12-13T18:50:04.827067+00:00",
        "meta_object_name": "COSMOS 2251 DEB",
        "meta_object_id": "1993-036ARR",
        "meta_epoch": "2025-12-01T22:51:30.250944",
        "meta_mean_motion": 14.12929206,
        "meta_eccentricity": 0.02319336,
        "meta_inclination": 74.1559,
        "meta_ra_of_asc_node": 329.2822,
        "meta_arg_of_pericenter": 270.0805,
        "meta_mean_anomaly": 87.3761,
        "meta_ephemeris_type": 0,
        "meta_classification_type": "U",
        "meta_norad_cat_id": 35771,
        "meta_element_set_no": 999,
        "meta_rev_at_epoch": 82708,
        "meta_bstar": 0.0074414228,
        "meta_mean_motion_dot": 0.00017913,
        "meta_mean_motion_ddot": 0,
        "tle_line1": "1 35771U 93036ARR 25335.95243346  .00017913  00000+0  74414-2 0  9990",
        "tle_line2": "2 35771  74.1559 329.2822 0231933 270.0805  87.3761 14.12929206827080"
      },
      "geometry": {
        "type": "Point",
        "coordinates": [
          -34.020047020395,
          46.610398838997064
        ]
      }
    },
    {
      "type": "Feature",
      "properties": {
        "norad_id": 35773,
        "name": "COSMOS 2251 DEB",
        "group": "cosmos-2251-debris",
        "lat": 67.32718188113613,
        "lon": 115.4645643089736,
        "alt_km": 652.3350467836617,
        "timestamp": "2025-12-13T18:50:04.827078+00:00",
        "meta_object_name": "COSMOS 2251 DEB",
        "meta_object_id": "1993-036ART",
        "meta_epoch": "2025-12-12T09:30:25.729632",
        "meta_mean_motion": 14.62066198,
        "meta_eccentricity": 0.00455671,
        "meta_inclination": 74.0082,
        "meta_ra_of_asc_node": 341.4791,
        "meta_arg_of_pericenter": 141.6526,
        "meta_mean_anomaly": 218.7896,
        "meta_ephemeris_type": 0,
        "meta_classification_type": "U",
        "meta_norad_cat_id": 35773,
        "meta_element_set_no": 999,
        "meta_rev_at_epoch": 86834,
        "meta_bstar": 0.00090074362,
        "meta_mean_motion_dot": 4.563e-05,
        "meta_mean_motion_ddot": 0,
        "tle_line1": "1 35773U 93036ART 25346.39613113  .00004563  00000+0  90074-3 0  9993",
        "tle_line2": "2 35773  74.0082 341.4791 0045567 141.6526 218.7896 14.62066198868342"
      },
      "geometry": {
        "type": "Point",
        "coordinates": [
          115.4645643089736,
          67.32718188113613
        ]
      }
    },
    {
      "type": "Feature",
      "properties": {
        "norad_id": 35777,
        "name": "COSMOS 2251 DEB",
        "group": "cosmos-2251-debris",
        "lat": 7.535589065581531,
        "lon": 138.8629580605661,
        "alt_km": 854.1595054784912,
        "timestamp": "2025-12-13T18:50:04.827088+00:00",
        "meta_object_name": "COSMOS 2251 DEB",
        "meta_object_id": "1993-036ARX",
        "meta_epoch": "2025-12-13T05:32:57.814080",
        "meta_mean_motion": 13.41304312,
        "meta_eccentricity": 0.04523038,
        "meta_inclination": 73.7705,
        "meta_ra_of_asc_node": 321.9551,
        "meta_arg_of_pericenter": 216.7232,
        "meta_mean_anomaly": 166.8369,
        "meta_ephemeris_type": 0,
        "meta_classification_type": "U",
        "meta_norad_cat_id": 35777,
        "meta_element_set_no": 999,
        "meta_rev_at_epoch": 79691,
        "meta_bstar": 0.00061045318,
        "meta_mean_motion_dot": 5.97e-06,
        "meta_mean_motion_ddot": 0,
        "tle_line1": "1 35777U 93036ARX 25347.23122470  .00000597  00000+0  61045-3 0  9991",
        "tle_line2": "2 35777  73.7705 321.9551 0452303 216.7232 166.8369 13.41304312796919"
      },
      "geometry": {
        "type": "Point",
        "coordinates": [
          138.8629580605661,
          7.535589065581531
        ]
      }
    },
    {
      "type": "Feature",
      "properties": {
        "norad_id": 35784,
        "name": "COSMOS 2251 DEB",
        "group": "cosmos-2251-debris",
        "lat": 69.3589363368328,
        "lon": 137.18854981515275,
        "alt_km": 741.6499260052833,
        "timestamp": "2025-12-13T18:50:04.827099+00:00",
        "meta_object_name": "COSMOS 2251 DEB",
        "meta_object_id": "1993-036ASE",
        "meta_epoch": "2025-12-13T00:15:55.997856",
        "meta_mean_motion": 14.5004387,
        "meta_eccentricity": 0.00418068,
        "meta_inclination": 74.0388,
        "meta_ra_of_asc_node": 89.1969,
        "meta_arg_of_pericenter": 220.0486,
        "meta_mean_anomaly": 139.759,
        "meta_ephemeris_type": 0,
        "meta_classification_type": "U",
        "meta_norad_cat_id": 35784,
        "meta_element_set_no": 999,
        "meta_rev_at_epoch": 65710,
        "meta_bstar": 0.00055772353,
        "meta_mean_motion_dot": 2.158e-05,
        "meta_mean_motion_ddot": 0,
        "tle_line1": "1 35784U 93036ASE 25347.01106479  .00002158  00000+0  55772-3 0  9991",
        "tle_line2": "2 35784  74.0388  89.1969 0041806 220.0486 139.7590 14.50043870657107"
      },
      "geometry": {
        "type": "Point",
        "coordinates": [
          137.18854981515275,
          69.3589363368328
        ]
      }
    },
    {
      "type": "Feature",
      "properties": {
        "norad_id": 35786,
        "name": "COSMOS 2251 DEB",
        "group": "cosmos-2251-debris",
        "lat": 52.84637544428063,
        "lon": 63.98108296594063,
        "alt_km": 677.946811834764,
        "timestamp": "2025-12-13T18:50:04.827109+00:00",
        "meta_object_name": "COSMOS 2251 DEB",
        "meta_object_id": "1993-036ASG",
        "meta_epoch": "2025-12-13T03:50:28.171392",
        "meta_mean_motion": 14.66235668,
        "meta_eccentricity": 0.00339853,
        "meta_inclination": 74.0142,
        "meta_ra_of_asc_node": 42.9574,
        "meta_arg_of_pericenter": 172.697,
        "meta_mean_anomaly": 187.4701,
        "meta_ephemeris_type": 0,
        "meta_classification_type": "U",
        "meta_norad_cat_id": 35786,
        "meta_element_set_no": 999,
        "meta_rev_at_epoch": 73414,
        "meta_bstar": 0.0014308424,
        "meta_mean_motion_dot": 7.928e-05,
        "meta_mean_motion_ddot": 0,
        "tle_line1": "1 35786U 93036ASG 25347.16004828  .00007928  00000+0  14308-2 0  9993",
        "tle_line2": "2 35786  74.0142  42.9574 0033985 172.6970 187.4701 14.66235668734144"
      },
      "geometry": {
        "type": "Point",
        "coordinates": [
          63.98108296594063,
          52.84637544428063
        ]
      }
    }
  ]
}